0 FENGYUN 1C DEB
1 30316U 99025AAD 13281.53925025  .00002224  00000-0  10508-2 0  3556
2 30316 098.9114 290.6468 0067192 077.8921 080.5720 14.19586500347893
0 FENGYUN 1C DEB
1 30316U 99025AAD 13282.58997818  .00002851  00000-0  13410-2 0  3563
2 30316 098.9114 291.7039 0067195 074.9437 050.2806 14.19596899348041
0 FENGYUN 1C DEB
1 30316U 99025AAD 13283.70430595  .00002779  00000-0  13074-2 0  3578
2 30316 098.9113 292.8253 0067121 071.7927 345.0718 14.19601849348205
0 FENGYUN 1C DEB
1 30316U 99025AAD 13285.48705775  .00002405  00000-0  11344-2 0  3585
2 30316 098.9111 294.6194 0067037 066.7572 095.8955 14.19610130348456
0 FENGYUN 1C DEB
1 30316U 99025AAD 13286.73471071  .00002763  00000-0  13000-2 0  3592
2 30316 098.9108 295.8751 0066987 063.2246 352.1243 14.19614696348637
0 FENGYUN 1C DEB
1 30316U 99025AAD 13288.70780895  .00003588  00000-0  16817-2 0  3605
2 30316 098.9101 297.8611 0066856 057.6477 355.8454 14.19629168348910
0 FENGYUN 1C DEB
1 30316U 99025AAD 13289.97781750  .00003547  00000-0  16624-2 0  3618
2 30316 098.9100 299.1388 0066797 054.0364 006.4268 14.19636961349096
0 FENGYUN 1C DEB
1 30316U 99025AAD 13291.73875465  .00003194  00000-0  14990-2 0  3625
2 30316 098.9097 300.9108 0066707 049.0371 006.0306 14.19647369349346
0 FENGYUN 1C DEB
1 30316U 99025AAD 13293.00720509  .00003490  00000-0  16356-2 0  3633
2 30316 098.9102 302.1868 0066608 045.4075 008.7567 14.19652046349527
0 FENGYUN 1C DEB
1 30316U 99025AAD 13294.76852794  .00003765  00000-0  17628-2 0  3648
2 30316 098.9106 303.9590 0066515 040.3737 010.4664 14.19664104349771
